start=new Date('2022-03-31T00:00:00.000Z').valueOf();
sats=[{"DECAY_DATE":null,"PERIAPSIS":"545.989","FILE":"3380779","BSTAR":"0.00004508000000","SEMIMAJOR_AXIS":"6925.339","OBJECT_ID":"2021-005U","MEAN_MOTION_DOT":"0.00000390","LAUNCH_DATE":"2021-01-20","PERIOD":"95.592","SITE":"AFETR","REV_AT_EPOCH":"6594","ELEMENT_SET_NO":"999","TLE_LINE1":"1 47367U 21005U   22089.29745741  .00000390  00000-0  45080-4 0  9998","NORAD_CAT_ID":"47367","MEAN_MOTION_DDOT":"0.0000000000000","EPOCH":"2022-03-30T07:08:20.320224","REF_FRAME":"TEME","INCLINATION":"53.0562","GP_ID":"200071257","APOAPSIS":"548.420","RA_OF_ASC_NODE":"47.8036","OBJECT_TYPE":"PAYLOAD","OBJECT_NAME":"STARLINK-2082","TLE_LINE2":"2 47367  53.0562  47.8036 0001755  52.5425 307.5724 15.06403012 65943","MEAN_ELEMENT_THEORY":"SGP4","RCS_SIZE":"LARGE","EPHEMERIS_TYPE":"0","CENTER_NAME":"EARTH","CLASSIFICATION_TYPE":"U","ARG_OF_PERICENTER":"52.5425","ECCENTRICITY":"0.00017550","TIME_SYSTEM":"UTC","MEAN_MOTION":"15.06403012","COUNTRY_CODE":"US","MEAN_ANOMALY":"307.5724"},{"NORAD_CAT_ID":"47368","MEAN_MOTION_DDOT":"0.0000000000000","EPOCH":"2022-03-30T08:33:15.563232","INCLINATION":"53.0557","REF_FRAME":"TEME","GP_ID":"200071006","PERIAPSIS":"546.244","FILE":"3380779","DECAY_DATE":null,"BSTAR":"-0.00003198400000","OBJECT_ID":"2021-005V","SEMIMAJOR_AXIS":"6925.358","MEAN_MOTION_DOT":"-0.00000758","LAUNCH_DATE":"2021-01-20","PERIOD":"95.592","ELEMENT_SET_NO":"999","SITE":"AFETR","REV_AT_EPOCH":"6595","TLE_LINE1":"1 47368U 21005V   22089.35643013 -.00000758  00000-0 -31984-4 0  9993","CENTER_NAME":"EARTH","TIME_SYSTEM":"UTC","ECCENTRICITY":"0.00014130","ARG_OF_PERICENTER":"54.2932","CLASSIFICATION_TYPE":"U","MEAN_MOTION":"15.06397065","MEAN_ANOMALY":"305.8188","COUNTRY_CODE":"US","OBJECT_TYPE":"PAYLOAD","APOAPSIS":"548.201","RA_OF_ASC_NODE":"47.5176","TLE_LINE2":"2 47368  53.0557  47.5176 0001413  54.2932 305.8188 15.06397065 65959","OBJECT_NAME":"STARLINK-2084","MEAN_ELEMENT_THEORY":"SGP4","RCS_SIZE":"LARGE","EPHEMERIS_TYPE":"0"},{"MEAN_ELEMENT_THEORY":"SGP4","TLE_LINE2":"2 47369  53.0577  26.6201 0001621  58.0625 302.0522 15.06397929 66266","OBJECT_NAME":"STARLINK-2085","EPHEMERIS_TYPE":"0","RCS_SIZE":"LARGE","OBJECT_TYPE":"PAYLOAD","RA_OF_ASC_NODE":"26.6201","APOAPSIS":"548.343","MEAN_ANOMALY":"302.0522","COUNTRY_CODE":"US","CENTER_NAME":"EARTH","MEAN_MOTION":"15.06397929","ECCENTRICITY":"0.00016210","TIME_SYSTEM":"UTC","CLASSIFICATION_TYPE":"U","ARG_OF_PERICENTER":"58.0625","PERIOD":"95.592","LAUNCH_DATE":"2021-01-20","TLE_LINE1":"1 47369U 21005W   22089.56099662 -.00001223  00000-0 -63218-4 0  9995","ELEMENT_SET_NO":"999","REV_AT_EPOCH":"6626","SITE":"AFETR","BSTAR":"-0.00006321800000","PERIAPSIS":"546.097","FILE":"3380779","DECAY_DATE":null,"MEAN_MOTION_DOT":"-0.00001223","OBJECT_ID":"2021-005W","SEMIMAJOR_AXIS":"6925.355","GP_ID":"200072258","NORAD_CAT_ID":"47369","INCLINATION":"53.0577","REF_FRAME":"TEME","MEAN_MOTION_DDOT":"0.0000000000000","EPOCH":"2022-03-30T13:27:50.107968"},{"RCS_SIZE":"LARGE","EPHEMERIS_TYPE":"0","TLE_LINE2":"2 47370  53.0558   5.0160 0001640  60.2316 299.8836 15.06409105 66604","OBJECT_NAME":"STARLINK-2086","MEAN_ELEMENT_THEORY":"SGP4","OBJECT_TYPE":"PAYLOAD","RA_OF_ASC_NODE":"5.0160","APOAPSIS":"548.321","MEAN_ANOMALY":"299.8836","COUNTRY_CODE":"US","TIME_SYSTEM":"UTC","ECCENTRICITY":"0.00016400","CLASSIFICATION_TYPE":"U","ARG_OF_PERICENTER":"60.2316","MEAN_MOTION":"15.06409105","CENTER_NAME":"EARTH","ELEMENT_SET_NO":"999","SITE":"AFETR","REV_AT_EPOCH":"6660","TLE_LINE1":"1 47370U 21005X   22089.91669322  .00006292  00000-0  44084-3 0  9990","LAUNCH_DATE":"2021-01-20","PERIOD":"95.592","SEMIMAJOR_AXIS":"6925.321","OBJECT_ID":"2021-005X","MEAN_MOTION_DOT":"0.00006292","FILE":"3380787","PERIAPSIS":"546.050","DECAY_DATE":null,"BSTAR":"0.00044084000000","GP_ID":"200097118","MEAN_MOTION_DDOT":"0.0000000000000","EPOCH":"2022-03-30T22:00:02.294208","INCLINATION":"53.0558","REF_FRAME":"TEME","NORAD_CAT_ID":"47370"},{"RA_OF_ASC_NODE":"46.5662","APOAPSIS":"548.420","OBJECT_TYPE":"PAYLOAD","EPHEMERIS_TYPE":"0","RCS_SIZE":"LARGE","MEAN_ELEMENT_THEORY":"SGP4","OBJECT_NAME":"STARLINK-2088","TLE_LINE2":"2 47371  53.0561  46.5662 0001739  56.8024 303.3131 15.06399366 65988","MEAN_MOTION":"15.06399366","ARG_OF_PERICENTER":"56.8024","CLASSIFICATION_TYPE":"U","ECCENTRICITY":"0.00017390","TIME_SYSTEM":"UTC","CENTER_NAME":"EARTH","COUNTRY_CODE":"US","MEAN_ANOMALY":"303.3131","MEAN_MOTION_DOT":"-0.00000538","SEMIMAJOR_AXIS":"6925.351","OBJECT_ID":"2021-005Y","BSTAR":"-0.00001722500000","DECAY_DATE":null,"PERIAPSIS":"546.011","FILE":"3380787","TLE_LINE1":"1 47371U 21005Y   22089.57022261 -.00000538  00000-0 -17225-4 0  9995","SITE":"AFETR","REV_AT_EPOCH":"6598","ELEMENT_SET_NO":"999","PERIOD":"95.592","LAUNCH_DATE":"2021-01-20","REF_FRAME":"TEME","INCLINATION":"53.0561","MEAN_MOTION_DDOT":"0.0000000000000","EPOCH":"2022-03-30T13:41:07.233504","NORAD_CAT_ID":"47371","GP_ID":"200097869"},{"CENTER_NAME":"EARTH","TIME_SYSTEM":"UTC","ECCENTRICITY":"0.00015540","ARG_OF_PERICENTER":"54.5840","CLASSIFICATION_TYPE":"U","MEAN_MOTION":"15.06406784","MEAN_ANOMALY":"305.5294","COUNTRY_CODE":"US","OBJECT_TYPE":"PAYLOAD","RA_OF_ASC_NODE":"41.4168","APOAPSIS":"548.269","TLE_LINE2":"2 47372  53.0559  41.4168 0001554  54.5840 305.5294 15.06406784 66053","OBJECT_NAME":"STARLINK-2089","MEAN_ELEMENT_THEORY":"SGP4","RCS_SIZE":"LARGE","EPHEMERIS_TYPE":"0","NORAD_CAT_ID":"47372","MEAN_MOTION_DDOT":"0.0000000000000","EPOCH":"2022-03-30T14:25:31.803456","INCLINATION":"53.0559","REF_FRAME":"TEME","GP_ID":"200096617","PERIAPSIS":"546.117","FILE":"3380787","DECAY_DATE":null,"BSTAR":"0.00027142000000","OBJECT_ID":"2021-005Z","SEMIMAJOR_AXIS":"6925.328","MEAN_MOTION_DOT":"0.00003764","LAUNCH_DATE":"2021-01-20","PERIOD":"95.592","ELEMENT_SET_NO":"999","REV_AT_EPOCH":"6605","SITE":"AFETR","TLE_LINE1":"1 47372U 21005Z   22089.60106254  .00003764  00000-0  27142-3 0  9995"},{"OBJECT_TYPE":"PAYLOAD","RA_OF_ASC_NODE":"46.5700","APOAPSIS":"548.547","RCS_SIZE":"LARGE","EPHEMERIS_TYPE":"0","TLE_LINE2":"2 47373  53.0549  46.5700 0001895  57.0316 303.0855 15.06392968 65980","OBJECT_NAME":"STARLINK-2092","MEAN_ELEMENT_THEORY":"SGP4","TIME_SYSTEM":"UTC","ECCENTRICITY":"0.00018950","CLASSIFICATION_TYPE":"U","ARG_OF_PERICENTER":"57.0316","MEAN_MOTION":"15.06392968","CENTER_NAME":"EARTH","MEAN_ANOMALY":"303.0855","COUNTRY_CODE":"US","SEMIMAJOR_AXIS":"6925.370","OBJECT_ID":"2021-005AA","MEAN_MOTION_DOT":"-0.00001916","FILE":"3380779","PERIAPSIS":"545.923","DECAY_DATE":null,"BSTAR":"-0.00010980000000","ELEMENT_SET_NO":"999","SITE":"AFETR","REV_AT_EPOCH":"6598","TLE_LINE1":"1 47373U 21005AA  22089.56652667 -.00001916  00000-0 -10980-3 0  9996","LAUNCH_DATE":"2021-01-20","PERIOD":"95.593","MEAN_MOTION_DDOT":"0.0000000000000","EPOCH":"2022-03-30T13:35:47.904288","INCLINATION":"53.0549","REF_FRAME":"TEME","NORAD_CAT_ID":"47373","GP_ID":"200071758"},{"GP_ID":"200071986","REF_FRAME":"TEME","INCLINATION":"53.0503","MEAN_MOTION_DDOT":"0.0000000000000","EPOCH":"2022-03-30T06:08:36.409344","NORAD_CAT_ID":"47374","TLE_LINE1":"1 47374U 21005AB  22089.25597696 -.00000359  00000-0 -52187-5 0  9990","SITE":"AFETR","REV_AT_EPOCH":"6593","ELEMENT_SET_NO":"999","PERIOD":"95.593","LAUNCH_DATE":"2021-01-20","MEAN_MOTION_DOT":"-0.00000359","SEMIMAJOR_AXIS":"6925.387","OBJECT_ID":"2021-005AB","BSTAR":"-0.00000521870000","DECAY_DATE":null,"PERIAPSIS":"545.971","FILE":"3380779","COUNTRY_CODE":"US","MEAN_ANOMALY":"303.1633","MEAN_MOTION":"15.06387487","CLASSIFICATION_TYPE":"U","ARG_OF_PERICENTER":"56.9533","TIME_SYSTEM":"UTC","ECCENTRICITY":"0.00018490","CENTER_NAME":"EARTH","EPHEMERIS_TYPE":"0","RCS_SIZE":"LARGE","MEAN_ELEMENT_THEORY":"SGP4","OBJECT_NAME":"STARLINK-2093","TLE_LINE2":"2 47374  53.0503  47.9927 0001849  56.9533 303.1633 15.06387487 65935","RA_OF_ASC_NODE":"47.9927","APOAPSIS":"548.532","OBJECT_TYPE":"PAYLOAD"},{"NORAD_CAT_ID":"47375","REF_FRAME":"TEME","INCLINATION":"53.0553","MEAN_MOTION_DDOT":"0.0000000000000","EPOCH":"2022-03-30T14:12:57.175488","GP_ID":"200097369","BSTAR":"-0.00003437800000","DECAY_DATE":null,"PERIAPSIS":"545.915","FILE":"3380787","MEAN_MOTION_DOT":"-0.00000794","SEMIMAJOR_AXIS":"6925.370","OBJECT_ID":"2021-005AC","PERIOD":"95.593","LAUNCH_DATE":"2021-01-20","TLE_LINE1":"1 47375U 21005AC  22089.59232842 -.00000794  00000-0 -34378-4 0  9991","REV_AT_EPOCH":"6598","SITE":"AFETR","ELEMENT_SET_NO":"999","CENTER_NAME":"EARTH","MEAN_MOTION":"15.06393049","ARG_OF_PERICENTER":"54.5412","CLASSIFICATION_TYPE":"U","ECCENTRICITY":"0.00019060","TIME_SYSTEM":"UTC","COUNTRY_CODE":"US","MEAN_ANOMALY":"305.5755","RA_OF_ASC_NODE":"46.4798","APOAPSIS":"548.555","OBJECT_TYPE":"PAYLOAD","MEAN_ELEMENT_THEORY":"SGP4","OBJECT_NAME":"STARLINK-2094","TLE_LINE2":"2 47375  53.0553  46.4798 0001906  54.5412 305.5755 15.06393049 65982","EPHEMERIS_TYPE":"0","RCS_SIZE":"LARGE"},{"GP_ID":"200071007","NORAD_CAT_ID":"47376","INCLINATION":"53.0552","REF_FRAME":"TEME","EPOCH":"2022-03-30T06:20:34.547136","MEAN_MOTION_DDOT":"0.0000000000000","PERIOD":"95.592","LAUNCH_DATE":"2021-01-20","TLE_LINE1":"1 47376U 21005AD  22089.26428874 -.00001614  00000-0 -89497-4 0  9992","ELEMENT_SET_NO":"999","REV_AT_EPOCH":"6593","SITE":"AFETR","BSTAR":"-0.00008949700000","FILE":"3380779","PERIAPSIS":"546.077","DECAY_DATE":null,"MEAN_MOTION_DOT":"-0.00001614","OBJECT_ID":"2021-005AD","SEMIMAJOR_AXIS":"6925.349","MEAN_ANOMALY":"299.6461","COUNTRY_CODE":"US","CENTER_NAME":"EARTH","MEAN_MOTION":"15.06399878","ECCENTRICITY":"0.00016410","TIME_SYSTEM":"UTC","CLASSIFICATION_TYPE":"U","ARG_OF_PERICENTER":"60.4691","MEAN_ELEMENT_THEORY":"SGP4","TLE_LINE2":"2 47376  53.0552  47.9438 0001641  60.4691 299.6461 15.06399878 65938","OBJECT_NAME":"STARLINK-2096","EPHEMERIS_TYPE":"0","RCS_SIZE":"LARGE","OBJECT_TYPE":"PAYLOAD","RA_OF_ASC_NODE":"47.9438","APOAPSIS":"548.350"}];
